{
  "type": "FeatureCollection",
  "features": [
    {
      "type": "Feature",
      "properties": {
        "norad_id": 43823,
        "name": "GEO-KOMPSAT-2A",
        "group": "weather",
        "lat": 0.009025661499003685,
        "lon": 133.49484394528508,
        "alt_km": 35783.85128308517,
        "timestamp": "2025-12-13T18:50:04.071419+00:00",
        "meta_object_name": "GEO-KOMPSAT-2A",
        "meta_object_id": "2018-100A",
        "meta_epoch": "2025-12-13T05:29:54.972672",
        "meta_mean_motion": 1.00273632,
        "meta_eccentricity": 4.313e-05,
        "meta_inclination": 0.0442,
        "meta_ra_of_asc_node": 144.0732,
        "meta_arg_of_pericenter": 340.6909,
        "meta_mean_anomaly": 168.1491,
        "meta_ephemeris_type": 0,
        "meta_classification_type": "U",
        "meta_norad_cat_id": 43823,
        "meta_element_set_no": 999,
        "meta_rev_at_epoch": 2576,
        "meta_bstar": 0,
        "meta_mean_motion_dot": -3.3e-06,
        "meta_mean_motion_ddot": 0,
        "tle_line1": "1 43823U 18100A   25347.22910848 -.00000330  00000+0  00000+0 0  9990",
        "tle_line2": "2 43823   0.0442 144.0732 0000431 340.6909 168.1491  1.00273632 25766"
      },
      "geometry": {
        "type": "Point",
        "coordinates": [
          133.49484394528508,
          0.009025661499003685
        ]
      }
    },
    {
      "type": "Feature",
      "properties": {
        "norad_id": 44387,
        "name": "METEOR-M2 2",
        "group": "weather",
        "lat": -29.39402619740411,
        "lon": -27.41104938061346,
        "alt_km": 817.6283343704354,
        "timestamp": "2025-12-13T18:50:04.071448+00:00",
        "meta_object_name": "METEOR-M2 2",
        "meta_object_id": "2019-038A",
        "meta_epoch": "2025-12-13T07:10:19.483968",
        "meta_mean_motion": 14.2429178,
        "meta_eccentricity": 0.00012637,
        "meta_inclination": 98.8974,
        "meta_ra_of_asc_node": 327.0344,
        "meta_arg_of_pericenter": 146.3208,
        "meta_mean_anomaly": 213.8051,
        "meta_ephemeris_type": 0,
        "meta_classification_type": "U",
        "meta_norad_cat_id": 44387,
        "meta_element_set_no": 999,
        "meta_rev_at_epoch": 33483,
        "meta_bstar": 0.00012961232,
        "meta_mean_motion_dot": 2.53e-06,
        "meta_mean_motion_ddot": 0,
        "tle_line1": "1 44387U 19038A   25347.29883662  .00000253  00000+0  12961-3 0  9993",
        "tle_line2": "2 44387  98.8974 327.0344 0001263 146.3208 213.8051 14.24291780334831"
      },
      "geometry": {
        "type": "Point",
        "coordinates": [
          -27.41104938061346,
          -29.39402619740411
        ]
      }
    },
    {
      "type": "Feature",
      "properties": {
        "norad_id": 47719,
        "name": "ARKTIKA-M 1",
        "group": "weather",
        "lat": 62.96563596378153,
        "lon": 165.9691321393245,
        "alt_km": 39149.975230886346,
        "timestamp": "2025-12-13T18:50:04.071463+00:00",
        "meta_object_name": "ARKTIKA-M 1",
        "meta_object_id": "2021-016A",
        "meta_epoch": "2025-12-09T14:03:23.859648",
        "meta_mean_motion": 2.00631311,
        "meta_eccentricity": 0.7202538,
        "meta_inclination": 63.1769,
        "meta_ra_of_asc_node": 84.4506,
        "meta_arg_of_pericenter": 269.1116,
        "meta_mean_anomaly": 15.6235,
        "meta_ephemeris_type": 0,
        "meta_classification_type": "U",
        "meta_norad_cat_id": 47719,
        "meta_element_set_no": 999,
        "meta_rev_at_epoch": 3498,
        "meta_bstar": 0,
        "meta_mean_motion_dot": -6.1e-07,
        "meta_mean_motion_ddot": 0,
        "tle_line1": "1 47719U 21016A   25343.58569282 -.00000061  00000+0  00000+0 0  9996",
        "tle_line2": "2 47719  63.1769  84.4506 7202538 269.1116  15.6235  2.00631311 34985"
      },
      "geometry": {
        "type": "Point",
        "coordinates": [
          165.9691321393245,
          62.96563596378153
        ]
      }
    },
    {
      "type": "Feature",
      "properties": {
        "norad_id": 49008,
        "name": "FENGYUN 3E",
        "group": "weather",
        "lat": -80.74639408537519,
        "lon": 59.2181648613721,
        "alt_km": 832.7029010837023,
        "timestamp": "2025-12-13T18:50:04.071476+00:00",
        "meta_object_name": "FENGYUN 3E",
        "meta_object_id": "2021-062A",
        "meta_epoch": "2025-12-13T07:24:17.874144",
        "meta_mean_motion": 14.19879532,
        "meta_eccentricity": 5.418e-05,
        "meta_inclination": 98.7481,
        "meta_ra_of_asc_node": 347.8228,
        "meta_arg_of_pericenter": 265.2328,
        "meta_mean_anomaly": 94.8786,
        "meta_ephemeris_type": 0,
        "meta_classification_type": "U",
        "meta_norad_cat_id": 49008,
        "meta_element_set_no": 999,
        "meta_rev_at_epoch": 23020,
        "meta_bstar": -2.0478335e-05,
        "meta_mean_motion_dot": -8.7e-07,
        "meta_mean_motion_ddot": 0,
        "tle_line1": "1 49008U 21062A   25347.30854021 -.00000087  00000+0 -20478-4 0  9997",
        "tle_line2": "2 49008  98.7481 347.8228 0000541 265.2328  94.8786 14.19879532230200"
      },
      "geometry": {
        "type": "Point",
        "coordinates": [
          59.2181648613721,
          -80.74639408537519
        ]
      }
    },
    {
      "type": "Feature",
      "properties": {
        "norad_id": 51850,
        "name": "GOES 18",
        "group": "weather",
        "lat": -0.012450785156285438,
        "lon": -131.7915998052967,
        "alt_km": 35786.42759191946,
        "timestamp": "2025-12-13T18:50:04.071527+00:00",
        "meta_object_name": "GOES 18",
        "meta_object_id": "2022-021A",
        "meta_epoch": "2025-12-13T05:26:51.632736",
        "meta_mean_motion": 1.00272141,
        "meta_eccentricity": 6.482e-05,
        "meta_inclination": 0.0012,
        "meta_ra_of_asc_node": 21.0089,
        "meta_arg_of_pericenter": 307.8801,
        "meta_mean_anomaly": 57.9823,
        "meta_ephemeris_type": 0,
        "meta_classification_type": "U",
        "meta_norad_cat_id": 51850,
        "meta_element_set_no": 999,
        "meta_rev_at_epoch": 472,
        "meta_bstar": 0,
        "meta_mean_motion_dot": 0,
        "meta_mean_motion_ddot": 0,
        "tle_line1": "1 51850U 22021A   25347.22698649  .00000000  00000+0  00000+0 0  9991",
        "tle_line2": "2 51850   0.0012  21.0089 0000648 307.8801  57.9823  1.00272141  4724"
      },
      "geometry": {
        "type": "Point",
        "coordinates": [
          -131.7915998052967,
          -0.012450785156285438
        ]
      }
    },
    {
      "type": "Feature",
      "properties": {
        "norad_id": 54234,
        "name": "NOAA 21 (JPSS-2)",
        "group": "weather",
        "lat": -78.13047477740665,
        "lon": -28.827835639085265,
        "alt_km": 835.0146369962786,
        "timestamp": "2025-12-13T18:50:04.071541+00:00",
        "meta_object_name": "NOAA 21 (JPSS-2)",
        "meta_object_id": "2022-150A",
        "meta_epoch": "2025-12-13T07:22:42.159360",
        "meta_mean_motion": 14.19524694,
        "meta_eccentricity": 0.00022069,
        "meta_inclination": 98.7462,
        "meta_ra_of_asc_node": 283.6086,
        "meta_arg_of_pericenter": 37.181,
        "meta_mean_anomaly": 322.9518,
        "meta_ephemeris_type": 0,
        "meta_classification_type": "U",
        "meta_norad_cat_id": 54234,
        "meta_element_set_no": 999,
        "meta_rev_at_epoch": 16017,
        "meta_bstar": 0.00010864824,
        "meta_mean_motion_dot": 1.85e-06,
        "meta_mean_motion_ddot": 0,
        "tle_line1": "1 54234U 22150A   25347.30743240  .00000185  00000+0  10865-3 0  9998",
        "tle_line2": "2 54234  98.7462 283.6086 0002206  37.1810 322.9518 14.19524694160179"
      },
      "geometry": {
        "type": "Point",
        "coordinates": [
          -28.827835639085265,
          -78.13047477740665
        ]
      }
    },
    {
      "type": "Feature",
      "properties": {
        "norad_id": 54743,
        "name": "METEOSAT-12 (MTG-I1)",
        "group": "weather",
        "lat": -0.21039291521602282,
        "lon": 4.97734219875376,
        "alt_km": 35788.48399993864,
        "timestamp": "2025-12-13T18:50:04.071554+00:00",
        "meta_object_name": "METEOSAT-12 (MTG-I1)",
        "meta_object_id": "2022-170C",
        "meta_epoch": "2025-12-13T04:53:13.486848",
        "meta_mean_motion": 1.00269152,
        "meta_eccentricity": 0.00016908,
        "meta_inclination": 0.6874,
        "meta_ra_of_asc_node": 23.6793,
        "meta_arg_of_pericenter": 237.9001,
        "meta_mean_anomaly": 253.6075,
        "meta_ephemeris_type": 0,
        "meta_classification_type": "U",
        "meta_norad_cat_id": 54743,
        "meta_element_set_no": 999,
        "meta_rev_at_epoch": 1111,
        "meta_bstar": 0,
        "meta_mean_motion_dot": 6e-08,
        "meta_mean_motion_ddot": 0,
        "tle_line1": "1 54743U 22170C   25347.20362832  .00000006  00000+0  00000+0 0  9996",
        "tle_line2": "2 54743   0.6874  23.6793 0001690 237.9001 253.6075  1.00269152 11116"
      },
      "geometry": {
        "type": "Point",
        "coordinates": [
          4.97734219875376,
          -0.21039291521602282
        ]
      }
    }
  ]
}